COSMOS 2433 (720)       
1 32275C 07052A   21343.99979167 -.00000000  00000-0  00000-0 0  3437
2 32275  66.0787  10.9571 0005202 251.4697 106.7067  2.13104124    17
COSMOS 2432 (719)       
1 32276C 07052B   21343.99979167 -.00000000  00000-0  00000-0 0  3438
2 32276  66.0920  11.0548 0010913 315.2991 351.6744  2.13103284    13
COSMOS 2434 (721)       
1 32393C 07065A   21343.99979167  .00000001  00000-0  00000-0 0  3432
2 32393  64.4195 247.9011 0003295  69.1700 177.8999  2.13102896    10
COSMOS 2436 (723)       
1 32395C 07065C   21343.99979167  .00000001  00000-0  00000-0 0  3434
2 32395  64.4284 247.9563 0016236   1.6318  21.4336  2.13102789    18
COSMOS 2456 (730)       
1 36111C 09070A   21343.99979167 -.00000000  00000-0  00000-0 0  3432
2 36111  64.3105 127.5600 0001633 332.8057  82.4990  2.13099225    11
COSMOS 2457 (733)       
1 36112C 09070B   21343.99979167 -.00000000  00000-0  00000-0 0  3433
2 36112  64.2935 127.4403 0006740 152.8459  28.2438  2.13101317    13
COSMOS 2459 (731)       
1 36400C 10007A   21343.99979167 -.00000000  00000-0  00000-0 0  3435
2 36400  65.9678   9.8217 0019255 359.6424 216.1633  2.13103542    12
COSMOS 2460 (732)       
1 36402C 10007C   21343.99979167 -.00000000  00000-0  00000-0 0  3437
2 36402  65.9548   9.7754 0002300 259.0907 263.3144  2.13106343    10
COSMOS 2464 (736)       
1 37139C 10041C   21343.99979167  .00000001  00000-0  00000-0 0  3433
2 37139  64.0188 247.0708 0029503  10.9061  95.7892  2.13100742    17
COSMOS 2476 (744)       
1 37867C 11064A   21343.99979167 -.00000000  00000-0  00000-0 0  3437
2 37867  64.6026 128.8422 0020073 230.7778  88.3653  2.13101910    12
COSMOS 2477 (745)       
1 37868C 11064B   21343.99979167 -.00000000  00000-0  00000-0 0  3438
2 37868  64.6104 128.9047 0017463 231.1331 266.2502  2.13101630    12
COSMOS 2475 (743)       
1 37869C 11064C   21343.99979167 -.00000000  00000-0  00000-0 0  3439
2 37869  64.6177 128.9112 0020879 252.4227 202.8329  2.13101867    16
COSMOS 2485 (747)       
1 39155C 13019A   21343.99979167 -.00000000  00000-0  00000-0 0  3431
2 39155  64.7676 129.2293 0020728 226.5260 137.0759  2.13101901    12
COSMOS 2492 (754)       
1 39620C 14012A   21343.99979167 -.00000000  00000-0  00000-0 0  3432
2 39620  65.8422   9.4832 0014230 314.3923  83.8257  2.13103191    15
COSMOS 2500 (755)       
1 40001C 14032A   21343.99979167 -.00000000  00000-0  00000-0 0  3439
2 40001  65.7822   9.3586 0008043 217.7715  39.6094  2.13102252    13
COSMOS 2501 (702)       
1 40315C 14075A   21343.99979167  .00000001  00000-0  00000-0 0  3434
2 40315  63.7286 247.8117 0016671 209.5948 214.8945  2.13101235    17
COSMOS 2514 (751)       
1 41330C 16008A   21343.99979167 -.00000000  00000-0  00000-0 0  3430
2 41330  65.5832   9.0973 0011841 221.8536 219.0059  2.13102789    12
COSMOS 2516 (753)       
1 41554C 16032A   21343.99979167  .00000001  00000-0  00000-0 0  3435
2 41554  64.6962 247.8747 0006324 252.8840  84.1349  2.13102708    11
COSMOS 2522 (752)       
1 42939C 17055A   21343.99979167  .00000001  00000-0  00000-0 0  3439
2 42939  64.1877 248.3740 0006691 251.0165 308.7003  2.13101918    10
COSMOS 2527 (756)       
1 43508C 18053A   21343.99979167 -.00000000  00000-0  00000-0 0  3431
2 43508  64.9311 129.1898 0007339 214.1881  17.6494  2.13102546    17
COSMOS 2529 (757)       
1 43687C 18086A   21343.99979167  .00000001  00000-0  00000-0 0  3435
2 43687  64.4024 248.6392 0009180 275.1331 240.1176  2.13102026    13
COSMOS 2534 (758)       
1 44299C 19030A   21343.99979167  .00000001  00000-0  00000-0 0  3435
2 44299  64.4737 248.5062 0012407 294.3421 355.6117  2.13101701    12
COSMOS 2544 (759)       
1 44850C 19088A   21343.99979167 -.00000000  00000-0  00000-0 0  3431
2 44850  64.9160 129.0461 0010394 252.9208  22.5235  2.13102388    15
COSMOS 2545 (760)       
1 45358C 20018A   21343.99979167 -.00000000  00000-0  00000-0 0  3430
2 45358  64.9187   9.8609 0011398 250.8995 234.3083  2.13102612    16
